{
  "type": "FeatureCollection",
  "features": [
    {
      "type": "Feature",
      "properties": {
        "norad_id": 64694,
        "name": "GOSAT-GW (IBUKI GW)",
        "group": "resource",
        "lat": -19.753229342428508,
        "lon": -68.70625377886759,
        "alt_km": 674.2389771963117,
        "timestamp": "2025-12-18T23:35:48.705191+00:00",
        "meta_object_name": "GOSAT-GW (IBUKI GW)",
        "meta_object_id": "2025-141A",
        "meta_epoch": "2025-12-18T13:52:10.293888",
        "meta_mean_motion": 14.6756349,
        "meta_eccentricity": 0.00014271,
        "meta_inclination": 98.0434,
        "meta_ra_of_asc_node": 287.9851,
        "meta_arg_of_pericenter": 83.5345,
        "meta_mean_anomaly": 276.6023,
        "meta_ephemeris_type": 0,
        "meta_classification_type": "U",
        "meta_norad_cat_id": 64694,
        "meta_element_set_no": 999,
        "meta_rev_at_epoch": 2535,
        "meta_bstar": 0.00010329883,
        "meta_mean_motion_dot": 5.38e-06,
        "meta_mean_motion_ddot": 0,
        "tle_line1": "1 64694U 25141A   25352.57789692  .00000538  00000+0  10330-3 0  9997",
        "tle_line2": "2 64694  98.0434 287.9851 0001427  83.5345 276.6023 14.67563490 25357"
      },
      "geometry": {
        "type": "Point",
        "coordinates": [
          -68.70625377886759,
          -19.753229342428508
        ]
      }
    },
    {
      "type": "Feature",
      "properties": {
        "norad_id": 64876,
        "name": "IONOSFERA-M 3",
        "group": "resource",
        "lat": 27.282002445870052,
        "lon": -49.7925891204711,
        "alt_km": 817.9399858844317,
        "timestamp": "2025-12-18T23:35:48.705201+00:00",
        "meta_object_name": "IONOSFERA-M 3",
        "meta_object_id": "2025-155A",
        "meta_epoch": "2025-12-18T15:01:13.727712",
        "meta_mean_motion": 14.21442394,
        "meta_eccentricity": 0.00020759,
        "meta_inclination": 98.5791,
        "meta_ra_of_asc_node": 314.3255,
        "meta_arg_of_pericenter": 50.4061,
        "meta_mean_anomaly": 309.73,
        "meta_ephemeris_type": 0,
        "meta_classification_type": "U",
        "meta_norad_cat_id": 64876,
        "meta_element_set_no": 999,
        "meta_rev_at_epoch": 2075,
        "meta_bstar": 3.793852e-05,
        "meta_mean_motion_dot": 4e-07,
        "meta_mean_motion_ddot": 0,
        "tle_line1": "1 64876U 25155A   25352.62585333  .00000040  00000+0  37939-4 0  9999",
        "tle_line2": "2 64876  98.5791 314.3255 0002075  50.4061 309.7300 14.21442394 20755"
      },
      "geometry": {
        "type": "Point",
        "coordinates": [
          -49.7925891204711,
          27.282002445870052
        ]
      }
    },
    {
      "type": "Feature",
      "properties": {
        "norad_id": 64877,
        "name": "IONOSFERA-M 4",
        "group": "resource",
        "lat": -28.176011622317397,
        "lon": 129.95424038940212,
        "alt_km": 827.176512496364,
        "timestamp": "2025-12-18T23:35:48.705211+00:00",
        "meta_object_name": "IONOSFERA-M 4",
        "meta_object_id": "2025-155B",
        "meta_epoch": "2025-12-18T14:10:21.271872",
        "meta_mean_motion": 14.21443632,
        "meta_eccentricity": 0.00014645,
        "meta_inclination": 98.5789,
        "meta_ra_of_asc_node": 314.2107,
        "meta_arg_of_pericenter": 57.7422,
        "meta_mean_anomaly": 302.3898,
        "meta_ephemeris_type": 0,
        "meta_classification_type": "U",
        "meta_norad_cat_id": 64877,
        "meta_element_set_no": 999,
        "meta_rev_at_epoch": 2074,
        "meta_bstar": 4.38385e-05,
        "meta_mean_motion_dot": 5.3e-07,
        "meta_mean_motion_ddot": 0,
        "tle_line1": "1 64877U 25155B   25352.59052398  .00000053  00000+0  43838-4 0  9995",
        "tle_line2": "2 64877  98.5789 314.2107 0001464  57.7422 302.3898 14.21443632 20746"
      },
      "geometry": {
        "type": "Point",
        "coordinates": [
          129.95424038940212,
          -28.176011622317397
        ]
      }
    },
    {
      "type": "Feature",
      "properties": {
        "norad_id": 64899,
        "name": "MICROCARB",
        "group": "resource",
        "lat": 57.73289228277262,
        "lon": 55.3547130766679,
        "alt_km": 644.1393787282022,
        "timestamp": "2025-12-18T23:35:48.705222+00:00",
        "meta_object_name": "MICROCARB",
        "meta_object_id": "2025-156A",
        "meta_epoch": "2025-12-18T15:10:28.560864",
        "meta_mean_motion": 14.72066432,
        "meta_eccentricity": 0.00174552,
        "meta_inclination": 98.002,
        "meta_ra_of_asc_node": 67.8831,
        "meta_arg_of_pericenter": 126.9719,
        "meta_mean_anomaly": 233.309,
        "meta_ephemeris_type": 0,
        "meta_classification_type": "U",
        "meta_norad_cat_id": 64899,
        "meta_element_set_no": 999,
        "meta_rev_at_epoch": 2140,
        "meta_bstar": 9.4005022e-05,
        "meta_mean_motion_dot": 5.42e-06,
        "meta_mean_motion_ddot": 0,
        "tle_line1": "1 64899U 25156A   25352.63227501  .00000542  00000+0  94005-4 0  9990",
        "tle_line2": "2 64899  98.0020  67.8831 0017455 126.9719 233.3090 14.72066432 21409"
      },
      "geometry": {
        "type": "Point",
        "coordinates": [
          55.3547130766679,
          57.73289228277262
        ]
      }
    },
    {
      "type": "Feature",
      "properties": {
        "norad_id": 64900,
        "name": "CO3D 3",
        "group": "resource",
        "lat": 77.08486160621803,
        "lon": -76.02601855867194,
        "alt_km": 497.05121776106444,
        "timestamp": "2025-12-18T23:35:48.705232+00:00",
        "meta_object_name": "CO3D 3",
        "meta_object_id": "2025-156B",
        "meta_epoch": "2025-12-18T13:40:40.079712",
        "meta_mean_motion": 15.20213666,
        "meta_eccentricity": 0.00013682,
        "meta_inclination": 97.4346,
        "meta_ra_of_asc_node": 68.8539,
        "meta_arg_of_pericenter": 83.9079,
        "meta_mean_anomaly": 276.2312,
        "meta_ephemeris_type": 0,
        "meta_classification_type": "U",
        "meta_norad_cat_id": 64900,
        "meta_element_set_no": 999,
        "meta_rev_at_epoch": 2209,
        "meta_bstar": 0.00021447316,
        "meta_mean_motion_dot": 4.58e-05,
        "meta_mean_motion_ddot": 0,
        "tle_line1": "1 64900U 25156B   25352.56990833  .00004580  00000+0  21447-3 0  9995",
        "tle_line2": "2 64900  97.4346  68.8539 0001368  83.9079 276.2312 15.20213666 22095"
      },
      "geometry": {
        "type": "Point",
        "coordinates": [
          -76.02601855867194,
          77.08486160621803
        ]
      }
    },
    {
      "type": "Feature",
      "properties": {
        "norad_id": 64901,
        "name": "CO3D 4",
        "group": "resource",
        "lat": 77.81626471938222,
        "lon": -73.52436218876484,
        "alt_km": 497.6721737744483,
        "timestamp": "2025-12-18T23:35:48.705242+00:00",
        "meta_object_name": "CO3D 4",
        "meta_object_id": "2025-156C",
        "meta_epoch": "2025-12-18T15:15:41.136192",
        "meta_mean_motion": 15.20223028,
        "meta_eccentricity": 0.00012422,
        "meta_inclination": 97.4346,
        "meta_ra_of_asc_node": 68.9189,
        "meta_arg_of_pericenter": 176.7316,
        "meta_mean_anomaly": 183.3927,
        "meta_ephemeris_type": 0,
        "meta_classification_type": "U",
        "meta_norad_cat_id": 64901,
        "meta_element_set_no": 999,
        "meta_rev_at_epoch": 2210,
        "meta_bstar": 0.00024830765,
        "meta_mean_motion_dot": 5.315e-05,
        "meta_mean_motion_ddot": 0,
        "tle_line1": "1 64901U 25156C   25352.63589278  .00005315  00000+0  24831-3 0  9998",
        "tle_line2": "2 64901  97.4346  68.9189 0001242 176.7316 183.3927 15.20223028 22109"
      },
      "geometry": {
        "type": "Point",
        "coordinates": [
          -73.52436218876484,
          77.81626471938222
        ]
      }
    },
    {
      "type": "Feature",
      "properties": {
        "norad_id": 64902,
        "name": "CO3D 2",
        "group": "resource",
        "lat": -83.36156797417121,
        "lon": 149.76001155135998,
        "alt_km": 664.4881085642346,
        "timestamp": "2025-12-18T23:35:48.705252+00:00",
        "meta_object_name": "CO3D 2",
        "meta_object_id": "2025-156D",
        "meta_epoch": "2025-12-17T16:22:38.080416",
        "meta_mean_motion": 15.1961406,
        "meta_eccentricity": 0.03739507,
        "meta_inclination": 96.5359,
        "meta_ra_of_asc_node": 68.5306,
        "meta_arg_of_pericenter": 43.1546,
        "meta_mean_anomaly": 319.8361,
        "meta_ephemeris_type": 0,
        "meta_classification_type": "U",
        "meta_norad_cat_id": 64902,
        "meta_element_set_no": 999,
        "meta_rev_at_epoch": 2195,
        "meta_bstar": -1.8482e-06,
        "meta_mean_motion_dot": -7.34e-06,
        "meta_mean_motion_ddot": 1.361317e-06,
        "tle_line1": "1 64902U 25156D   25351.68238519 -.00000734  13613-5 -18482-5 0  9991",
        "tle_line2": "2 64902  96.5359  68.5306 0373950  43.1546 319.8361 15.19614060 21959"
      },
      "geometry": {
        "type": "Point",
        "coordinates": [
          149.76001155135998,
          -83.36156797417121
        ]
      }
    }
  ]
}